{
  "type": "FeatureCollection",
  "features": [
    {
      "type": "Feature",
      "properties": {
        "norad_id": 66696,
        "name": "IRIDE FM2",
        "group": "last-30-days",
        "lat": 57.22878818702306,
        "lon": -101.28331019345781,
        "alt_km": 509.820049957676,
        "timestamp": "2025-12-21T09:37:21.371401+00:00",
        "meta_object_name": "IRIDE FM2",
        "meta_object_id": "2025-276AG",
        "meta_epoch": "2025-12-21T04:20:19.756608",
        "meta_mean_motion": 15.17383599,
        "meta_eccentricity": 0.0002466,
        "meta_inclination": 97.4397,
        "meta_ra_of_asc_node": 66.7887,
        "meta_arg_of_pericenter": 277.4863,
        "meta_mean_anomaly": 82.609,
        "meta_ephemeris_type": 0,
        "meta_classification_type": "U",
        "meta_norad_cat_id": 66696,
        "meta_element_set_no": 999,
        "meta_rev_at_epoch": 340,
        "meta_bstar": 0.00036457,
        "meta_mean_motion_dot": 7.219e-05,
        "meta_mean_motion_ddot": 0,
        "tle_line1": "1 66696U 25276AG  25355.18078422  .00007219  00000+0  36457-3 0  9993",
        "tle_line2": "2 66696  97.4397  66.7887 0002466 277.4863  82.6090 15.17383599  3404"
      },
      "geometry": {
        "type": "Point",
        "coordinates": [
          -101.28331019345781,
          57.22878818702306
        ]
      }
    },
    {
      "type": "Feature",
      "properties": {
        "norad_id": 66697,
        "name": "IRIDE FM3",
        "group": "last-30-days",
        "lat": -2.741267962439162,
        "lon": -113.32740534119759,
        "alt_km": 514.2485096781711,
        "timestamp": "2025-12-21T09:37:21.371411+00:00",
        "meta_object_name": "IRIDE FM3",
        "meta_object_id": "2025-276AH",
        "meta_epoch": "2025-12-21T04:04:29.779968",
        "meta_mean_motion": 15.18130384,
        "meta_eccentricity": 0.0001069,
        "meta_inclination": 97.4395,
        "meta_ra_of_asc_node": 66.8038,
        "meta_arg_of_pericenter": 158.8962,
        "meta_mean_anomaly": 201.2316,
        "meta_ephemeris_type": 0,
        "meta_classification_type": "U",
        "meta_norad_cat_id": 66697,
        "meta_element_set_no": 999,
        "meta_rev_at_epoch": 340,
        "meta_bstar": 0.00033758,
        "meta_mean_motion_dot": 6.824e-05,
        "meta_mean_motion_ddot": 0,
        "tle_line1": "1 66697U 25276AH  25355.16978912  .00006824  00000+0  33758-3 0  9997",
        "tle_line2": "2 66697  97.4395  66.8038 0001069 158.8962 201.2316 15.18130384  3405"
      },
      "geometry": {
        "type": "Point",
        "coordinates": [
          -113.32740534119759,
          -2.741267962439162
        ]
      }
    },
    {
      "type": "Feature",
      "properties": {
        "norad_id": 66698,
        "name": "IRIDE FM4",
        "group": "last-30-days",
        "lat": 61.466317230126464,
        "lon": -99.09021791830075,
        "alt_km": 509.60198182227487,
        "timestamp": "2025-12-21T09:37:21.371424+00:00",
        "meta_object_name": "IRIDE FM4",
        "meta_object_id": "2025-276AJ",
        "meta_epoch": "2025-12-21T04:21:27.980640",
        "meta_mean_motion": 15.17309742,
        "meta_eccentricity": 0.0002651,
        "meta_inclination": 97.4396,
        "meta_ra_of_asc_node": 66.7884,
        "meta_arg_of_pericenter": 268.4852,
        "meta_mean_anomaly": 91.6077,
        "meta_ephemeris_type": 0,
        "meta_classification_type": "U",
        "meta_norad_cat_id": 66698,
        "meta_element_set_no": 999,
        "meta_rev_at_epoch": 340,
        "meta_bstar": 0.00036712,
        "meta_mean_motion_dot": 7.254e-05,
        "meta_mean_motion_ddot": 0,
        "tle_line1": "1 66698U 25276AJ  25355.18157385  .00007254  00000+0  36712-3 0  9994",
        "tle_line2": "2 66698  97.4396  66.7884 0002651 268.4852  91.6077 15.17309742  3409"
      },
      "geometry": {
        "type": "Point",
        "coordinates": [
          -99.09021791830075,
          61.466317230126464
        ]
      }
    },
    {
      "type": "Feature",
      "properties": {
        "norad_id": 66699,
        "name": "IRIDE FM5",
        "group": "last-30-days",
        "lat": 60.45131014240148,
        "lon": -99.66511928892582,
        "alt_km": 508.5585478738185,
        "timestamp": "2025-12-21T09:37:21.371434+00:00",
        "meta_object_name": "IRIDE FM5",
        "meta_object_id": "2025-276AK",
        "meta_epoch": "2025-12-21T04:21:13.303008",
        "meta_mean_motion": 15.17461145,
        "meta_eccentricity": 0.0002745,
        "meta_inclination": 97.4392,
        "meta_ra_of_asc_node": 66.7933,
        "meta_arg_of_pericenter": 240.6897,
        "meta_mean_anomaly": 119.4063,
        "meta_ephemeris_type": 0,
        "meta_classification_type": "U",
        "meta_norad_cat_id": 66699,
        "meta_element_set_no": 999,
        "meta_rev_at_epoch": 340,
        "meta_bstar": 0.0042402,
        "meta_mean_motion_dot": 0.00085765,
        "meta_mean_motion_ddot": 0,
        "tle_line1": "1 66699U 25276AK  25355.18140397  .00085765  00000+0  42402-2 0  9995",
        "tle_line2": "2 66699  97.4392  66.7933 0002745 240.6897 119.4063 15.17461145  3406"
      },
      "geometry": {
        "type": "Point",
        "coordinates": [
          -99.66511928892582,
          60.45131014240148
        ]
      }
    },
    {
      "type": "Feature",
      "properties": {
        "norad_id": 66700,
        "name": "IRIDE FM6",
        "group": "last-30-days",
        "lat": -5.865271152408698,
        "lon": -113.72753356501592,
        "alt_km": 514.153899708549,
        "timestamp": "2025-12-21T09:37:21.371444+00:00",
        "meta_object_name": "IRIDE FM6",
        "meta_object_id": "2025-276AL",
        "meta_epoch": "2025-12-21T04:03:40.664160",
        "meta_mean_motion": 15.18185075,
        "meta_eccentricity": 0.0001501,
        "meta_inclination": 97.443,
        "meta_ra_of_asc_node": 66.814,
        "meta_arg_of_pericenter": 167.5914,
        "meta_mean_anomaly": 192.5357,
        "meta_ephemeris_type": 0,
        "meta_classification_type": "U",
        "meta_norad_cat_id": 66700,
        "meta_element_set_no": 999,
        "meta_rev_at_epoch": 340,
        "meta_bstar": 0.00040226,
        "meta_mean_motion_dot": 8.159e-05,
        "meta_mean_motion_ddot": 0,
        "tle_line1": "1 66700U 25276AL  25355.16922065  .00008159  00000+0  40226-3 0  9991",
        "tle_line2": "2 66700  97.4430  66.8140 0001501 167.5914 192.5357 15.18185075  3403"
      },
      "geometry": {
        "type": "Point",
        "coordinates": [
          -113.72753356501592,
          -5.865271152408698
        ]
      }
    },
    {
      "type": "Feature",
      "properties": {
        "norad_id": 66701,
        "name": "IRIDE FM7",
        "group": "last-30-days",
        "lat": 60.71701920554488,
        "lon": -99.50534511443556,
        "alt_km": 509.6448524107209,
        "timestamp": "2025-12-21T09:37:21.371454+00:00",
        "meta_object_name": "IRIDE FM7",
        "meta_object_id": "2025-276AM",
        "meta_epoch": "2025-12-21T02:46:18.261696",
        "meta_mean_motion": 15.17344682,
        "meta_eccentricity": 0.000292,
        "meta_inclination": 97.443,
        "meta_ra_of_asc_node": 66.7332,
        "meta_arg_of_pericenter": 264.5732,
        "meta_mean_anomaly": 95.5169,
        "meta_ephemeris_type": 0,
        "meta_classification_type": "U",
        "meta_norad_cat_id": 66701,
        "meta_element_set_no": 999,
        "meta_rev_at_epoch": 339,
        "meta_bstar": 0.00034953,
        "meta_mean_motion_dot": 6.91e-05,
        "meta_mean_motion_ddot": 0,
        "tle_line1": "1 66701U 25276AM  25355.11548914  .00006910  00000+0  34953-3 0  9997",
        "tle_line2": "2 66701  97.4430  66.7332 0002920 264.5732  95.5169 15.17344682  3399"
      },
      "geometry": {
        "type": "Point",
        "coordinates": [
          -99.50534511443556,
          60.71701920554488
        ]
      }
    },
    {
      "type": "Feature",
      "properties": {
        "norad_id": 66702,
        "name": "IRIDE FM8",
        "group": "last-30-days",
        "lat": 59.82253823376171,
        "lon": -100.00511005071903,
        "alt_km": 509.7782090781511,
        "timestamp": "2025-12-21T09:37:21.371467+00:00",
        "meta_object_name": "IRIDE FM8",
        "meta_object_id": "2025-276AN",
        "meta_epoch": "2025-12-21T04:21:01.619136",
        "meta_mean_motion": 15.17356407,
        "meta_eccentricity": 0.0002801,
        "meta_inclination": 97.4406,
        "meta_ra_of_asc_node": 66.791,
        "meta_arg_of_pericenter": 272.9053,
        "meta_mean_anomaly": 87.186,
        "meta_ephemeris_type": 0,
        "meta_classification_type": "U",
        "meta_norad_cat_id": 66702,
        "meta_element_set_no": 999,
        "meta_rev_at_epoch": 340,
        "meta_bstar": 0.00033509,
        "meta_mean_motion_dot": 6.624e-05,
        "meta_mean_motion_ddot": 0,
        "tle_line1": "1 66702U 25276AN  25355.18126874  .00006624  00000+0  33509-3 0  9990",
        "tle_line2": "2 66702  97.4406  66.7910 0002801 272.9053  87.1860 15.17356407  3407"
      },
      "geometry": {
        "type": "Point",
        "coordinates": [
          -100.00511005071903,
          59.82253823376171
        ]
      }
    }
  ]
}